$$SOE
2460721.500000000, A.D. 2025-Feb-15 00:00:00.0000, 8.582504061774114E+07, 5.449395649245809E+08, 1.387918210704777E+07,
2460728.500000000, A.D. 2025-Feb-22 00:00:00.0000, 7.701624865078001E+07, 5.470192945598089E+08, 1.553361793725038E+07,
2460735.500000000, A.D. 2025-Mar-01 00:00:00.0000, 6.818541125907660E+07, 5.489426224690421E+08, 1.718348433720827E+07,
2460742.500000000, A.D. 2025-Mar-08 00:00:00.0000, 5.933516102509537E+07, 5.507096771913009E+08, 1.882832001330328E+07,
2460749.500000000, A.D. 2025-Mar-15 00:00:00.0000, 5.046811419290611E+07, 5.523206280345556E+08, 2.046766898526561E+07,
2460756.500000000, A.D. 2025-Mar-22 00:00:00.0000, 4.158686804542767E+07, 5.537756847511077E+08, 2.210108088552505E+07,
2460763.500000000, A.D. 2025-Mar-29 00:00:00.0000, 3.269399967388523E+07, 5.550750949706421E+08, 2.372811094520485E+07,
2460770.500000000, A.D. 2025-Apr-05 00:00:00.0000, 2.379206646431362E+07, 5.562191425307747E+08, 2.534831989297351E+07,
2460777.500000000, A.D. 2025-Apr-12 00:00:00.0000, 1.488360637532103E+07, 5.572081468093967E+08, 2.696127395141518E+07,
2460784.500000000, A.D. 2025-Apr-19 00:00:00.0000, 5.971137819494134E+06, 5.580424621772639E+08, 2.856654487565258E+07,
2460791.500000000, A.D. 2025-Apr-26 00:00:00.0000, -2.942840580513480E+06, 5.587224773679371E+08, 3.016370999238178E+07,
2460798.500000000, A.D. 2025-May-03 00:00:00.0000, -1.185585024809766E+07, 5.592486147845598E+08, 3.175235223019898E+07,
2460805.500000000, A.D. 2025-May-10 00:00:00.0000, -2.076543289296930E+07, 5.596213297524039E+08, 3.333206013912141E+07,
2460812.500000000, A.D. 2025-May-17 00:00:00.0000, -2.966915069938669E+07, 5.598411096763270E+08, 3.490242789247715E+07,
2460819.500000000, A.D. 2025-May-24 00:00:00.0000, -3.856458628905272E+07, 5.599084730487767E+08, 3.646305525074431E+07,
2460826.500000000, A.D. 2025-May-31 00:00:00.0000, -4.744934204163546E+07, 5.598239686195133E+08, 3.801354747450215E+07,
2460833.500000000, A.D. 2025-Jun-07 00:00:00.0000, -5.632103917449977E+07, 5.595881759324131E+08, 3.955351532187638E+07,
2460840.500000000, A.D. 2025-Jun-14 00:00:00.0000, -6.517731894622705E+07, 5.592017065626564E+08, 4.108257529299155E+07,
2460847.500000000, A.D. 2025-Jun-21 00:00:00.0000, -7.401584476761477E+07, 5.586652027816279E+08, 4.260034974263054E+07,
2460854.500000000, A.D. 2025-Jun-28 00:00:00.0000, -8.283430209359913E+07, 5.579793354140992E+08, 4.410646671872681E+07,
2460861.500000000, A.D. 2025-Jul-05 00:00:00.0000, -9.163039761358933E+07, 5.571448030452964E+08, 4.560055984238434E+07,
2460868.500000000, A.D. 2025-Jul-12 00:00:00.0000, -1.004018589314575E+08, 5.561623317725850E+08, 4.708226827313474E+07,
2460875.500000000, A.D. 2025-Jul-19 00:00:00.0000, -1.091464345462608E+08, 5.550326749263682E+08, 4.855123669537064E+07,
2460882.500000000, A.D. 2025-Jul-26 00:00:00.0000, -1.178618939245903E+08, 5.537566127035279E+08, 5.000711530244818E+07,
2460889.500000000, A.D. 2025-Aug-02 00:00:00.0000, -1.265460275999849E+08, 5.523349517351394E+08, 5.144955977463970E+07,
2460896.500000000, A.D. 2025-Aug-09 00:00:00.0000, -1.351966472767897E+08, 5.507685245740376E+08, 5.287823124803916E+07,
2460903.500000000, A.D. 2025-Aug-16 00:00:00.0000, -1.438115858622875E+08, 5.490581890392905E+08, 5.429279626267862E+07,
2460910.500000000, A.D. 2025-Aug-23 00:00:00.0000, -1.523886971352549E+08, 5.472048274343914E+08, 5.569292666488063E+07,
2460917.500000000, A.D. 2025-Aug-30 00:00:00.0000, -1.609258547228158E+08, 5.452093463536873E+08, 5.707829949258137E+07,
2460924.500000000, A.D. 2025-Sep-06 00:00:00.0000, -1.694209518042699E+08, 5.430726780781518E+08, 5.844859705600911E+07,
2460931.500000000, A.D. 2025-Sep-13 00:00:00.0000, -1.778719032122849E+08, 5.407957810776986E+08, 5.980350716446021E+07,
2460938.500000000, A.D. 2025-Sep-20 00:00:00.0000, -1.862766466582634E+08, 5.383796379740610E+08, 6.114272306483781E+07,
2460945.500000000, A.D. 2025-Sep-27 00:00:00.0000, -1.946331420246648E+08, 5.358252540753435E+08, 6.246594324954009E+07,
2460952.500000000, A.D. 2025-Oct-04 00:00:00.0000, -2.029393707418540E+08, 5.331336570219126E+08, 6.377287136309475E+07,
2460959.500000000, A.D. 2025-Oct-11 00:00:00.0000, -2.111933356238386E+08, 5.303058966005518E+08, 6.506321616500935E+07,
2460966.500000000, A.D. 2025-Oct-18 00:00:00.0000, -2.193930608802706E+08, 5.273430444526532E+08, 6.633669150065836E+07,
2460973.500000000, A.D. 2025-Oct-25 00:00:00.0000, -2.275365921661690E+08, 5.242461936882119E+08, 6.759301626855779E+07,
2460980.500000000, A.D. 2025-Nov-01 00:00:00.0000, -2.356219966306053E+08, 5.210164584220935E+08, 6.883191438184011E+07,
2460987.500000000, A.D. 2025-Nov-08 00:00:00.0000, -2.436473629302165E+08, 5.176549732020112E+08, 7.005311471823496E+07,
2460994.500000000, A.D. 2025-Nov-15 00:00:00.0000, -2.516108010599940E+08, 5.141628922702283E+08, 7.125635104014313E+07,
2461001.500000000, A.D. 2025-Nov-22 00:00:00.0000, -2.595104415990512E+08, 5.105413888794076E+08, 7.244136186573488E+07,
2461008.500000000, A.D. 2025-Nov-29 00:00:00.0000, -2.673444345252417E+08, 5.067916557980270E+08, 7.360789039778084E+07,
2461015.500000000, A.D. 2025-Dec-06 00:00:00.0000, -2.751109498766058E+08, 5.029149068702176E+08, 7.475568470794171E+07,
2461022.500000000, A.D. 2025-Dec-13 00:00:00.0000, -2.828081798256608E+08, 4.989123762598526E+08, 7.588449786114326E+07,
2461029.500000000, A.D. 2025-Dec-20 00:00:00.0000, -2.904343386735530E+08, 4.947853164011340E+08, 7.699408774306983E+07,
2461036.500000000, A.D. 2025-Dec-27 00:00:00.0000, -2.979876618390594E+08, 4.905349972474446E+08, 7.808421690112120E+07,
2461043.500000000, A.D. 2026-Jan-03 00:00:00.0000, -3.054664053020805E+08, 4.861627062040825E+08, 7.915465248248926E+07,
2461050.500000000, A.D. 2026-Jan-10 00:00:00.0000, -3.128688453917990E+08, 4.816697480665900E+08, 8.020516620384374E+07,
2461057.500000000, A.D. 2026-Jan-17 00:00:00.0000, -3.201932786870082E+08, 4.770574448735538E+08, 8.123553432384801E+07,
2461064.500000000, A.D. 2026-Jan-24 00:00:00.0000, -3.274380219508469E+08, 4.723271356970576E+08, 8.224553761326471E+07,
2461071.500000000, A.D. 2026-Jan-31 00:00:00.0000, -3.346014120767308E+08, 4.674801763639426E+08, 8.323496131995586E+07,
2461078.500000000, A.D. 2026-Feb-07 00:00:00.0000, -3.416818059842659E+08, 4.625179390510822E+08, 8.420359511852252E+07,
2461085.500000000, A.D. 2026-Feb-14 00:00:00.0000, -3.486775802124698E+08, 4.574418117398897E+08, 8.515123302021176E+07,
2461092.500000000, A.D. 2026-Feb-21 00:00:00.0000, -3.555871298232898E+08, 4.522531981075600E+08, 8.607767325483167E+07,
2461099.500000000, A.D. 2026-Feb-28 00:00:00.0000, -3.624088677011076E+08, 4.469535190091895E+08, 8.698271831865612E+07,
2461106.500000000, A.D. 2026-Mar-07 00:00:00.0000, -3.691412263073617E+08, 4.415442136018062E+08, 8.786617521804056E+07,
2461113.500000000, A.D. 2026-Mar-14 00:00:00.0000, -3.757826591141059E+08, 4.360267377775888E+08, 8.872785546358043E+07,
2461120.500000000, A.D. 2026-Mar-21 00:00:00.0000, -3.823316399337823E+08, 4.304025628033503E+08, 8.956757488815752E+07,
2461127.500000000, A.D. 2026-Mar-28 00:00:00.0000, -3.887866621556418E+08, 4.246731751951104E+08, 9.038515355753583E+07,
2461134.500000000, A.D. 2026-Apr-04 00:00:00.0000, -3.951462384929410E+08, 4.188400768626149E+08, 9.118041575025791E+07,
2461141.500000000, A.D. 2026-Apr-11 00:00:00.0000, -4.014089009670120E+08, 4.129047851638314E+08, 9.195318995251498E+07,
2461148.500000000, A.D. 2026-Apr-18 00:00:00.0000, -4.075732009689412E+08, 4.068688328625299E+08, 9.270330885304752E+07,
2461155.500000000, A.D. 2026-Apr-25 00:00:00.0000, -4.136377093530021E+08, 4.007337680035058E+08, 9.343060933530870E+07,
2461162.500000000, A.D. 2026-May-02 00:00:00.0000, -4.196010165309491E+08, 3.945011536757576E+08, 9.413493246186745E+07,
2461169.500000000, A.D. 2026-May-09 00:00:00.0000, -4.254617324421578E+08, 3.881725675973063E+08, 9.481612343436117E+07,
2461176.500000000, A.D. 2026-May-16 00:00:00.0000, -4.312184860210425E+08, 3.817496016597353E+08, 9.547403150566904E+07,
2461183.500000000, A.D. 2026-May-23 00:00:00.0000, -4.368699241094219E+08, 3.752338624542819E+08, 9.610850992302902E+07,
2461190.500000000, A.D. 2026-May-30 00:00:00.0000, -4.424147118923475E+08, 3.686269730985780E+08, 9.671941611877429E+07,
2461197.500000000, A.D. 2026-Jun-06 00:00:00.0000, -4.478515351747790E+08, 3.619305730903608E+08, 9.730661191018684E+07,
2461204.500000000, A.D. 2026-Jun-13 00:00:00.0000, -4.531791008326776E+08, 3.551463163862699E+08, 9.786996338820009E+07,
2461211.500000000, A.D. 2026-Jun-20 00:00:00.0000, -4.583961359401891E+08, 3.482758706308026E+08, 9.840934077983512E+07,
2461218.500000000, A.D. 2026-Jun-27 00:00:00.0000, -4.635013872726792E+08, 3.413209171958176E+08, 9.892461841242205E+07,
2461225.500000000, A.D. 2026-Jul-04 00:00:00.0000, -4.684936211863654E+08, 3.342831512564006E+08, 9.941567471625093E+07,
2461232.500000000, A.D. 2026-Jul-11 00:00:00.0000, -4.733716236206539E+08, 3.271642817715031E+08, 9.988239223137447E+07,
2461239.500000000, A.D. 2026-Jul-18 00:00:00.0000, -4.781342001303988E+08, 3.199660313950889E+08, 1.003246576118862E+08,
2461246.500000000, A.D. 2026-Jul-25 00:00:00.0000, -4.827801759235939E+08, 3.126901363203586E+08, 1.007423616253815E+08,
2461253.500000000, A.D. 2026-Aug-01 00:00:00.0000, -4.873083958563947E+08, 3.053383460087057E+08, 1.011353991390181E+08,
2461260.500000000, A.D. 2026-Aug-08 00:00:00.0000, -4.917177241706121E+08, 2.979124227672626E+08, 1.015036690693407E+08,
2461267.500000000, A.D. 2026-Aug-15 00:00:00.0000, -4.960070435587062E+08, 2.904141416251073E+08, 1.018470742944550E+08,
2461274.500000000, A.D. 2026-Aug-22 00:00:00.0000, -5.001752543176715E+08, 2.828452917290928E+08, 1.021655216980891E+08,
2461281.500000000, A.D. 2026-Aug-29 00:00:00.0000, -5.042212758817374E+08, 2.752076778866451E+08, 1.024589224434052E+08,
2461288.500000000, A.D. 2026-Sep-05 00:00:00.0000, -5.081440486004952E+08, 2.675031193879054E+08, 1.027271920465628E+08,
$$EOE